GLOBALSTAR M067         
1 32263U 07048A   25026.47099735 -.00000046  00000+0  38006-3 0  9994
2 32263  51.9729  90.6040 0001121  75.2986  29.6933 12.40665520791899
GLOBALSTAR M070         
1 32264U 07048B   25026.89775021 -.00000081  00000+0  12767-3 0  9995
2 32264  51.9726 198.9262 0001142 105.0446  53.0733 12.62311276795827
GLOBALSTAR M068         
1 32266U 07048D   25026.33263431 -.00000049  00000+0  30576-3 0  9995
2 32266  51.9905  14.6735 0000922 167.4831 332.1768 12.62814140799632
GLOBALSTAR M079         
1 37188U 10054A   25026.84387667 -.00000086  00000+0  97707-4 0  9999
2 37188  52.0013 210.0594 0000988  72.2910  35.4757 12.62270347658607
GLOBALSTAR M074         
1 37189U 10054B   25026.87943775 -.00000092  00000+0  66563-4 0  9994
2 37189  51.9988 209.2953 0001234  90.7726  58.5119 12.62262330659210
GLOBALSTAR M076         
1 37190U 10054C   25026.90617925 -.00000072  00000+0  17888-3 0  9998
2 37190  52.0007 209.3708 0001282  75.5078  76.3638 12.62277211658935
GLOBALSTAR M077         
1 37191U 10054D   25026.72543125 -.00000109  00000+0 -30233-4 0  9991
2 37191  52.0057 166.7381 0000990 102.7072   5.9843 12.62270217659280
